NORAD_CAT_ID,OBJECT_NAME,OBJECT_TYPE,EPOCH,MEAN_MOTION,ECCENTRICITY,INCLINATION,RA_OF_ASC_NODE,ARG_OF_PERICENTER,MEAN_ANOMALY,BSTAR,MEAN_MOTION_DOT,MEAN_MOTION_DDOT,TLE_LINE0,TLE_LINE1,TLE_LINE2,SEMIMAJOR_AXIS,PERIOD,APOGEE,PERIGEE,DECAYED
51879.0,STARLINK-3572,PAYLOAD,2022-08-15 22:00:00,15.08827686,0.0001744,53.2163,83.0039,64.4524,34.1922,-0.00010267,-1.921e-05,0.0,0 STARLINK-3572,1 51879U 22022AD  22227.91667824 -.00001921  00000-0 -10267-3 0  9990,2 51879  53.2163  83.0039 0001744  64.4524  34.1922 15.08827686  1302,6917.918000000002,95.438,540.99,538.577,0.0
51879.0,STARLINK-3572,PAYLOAD,2022-08-16 06:00:02,15.08848969,0.0001669,53.216,81.5066,65.8623,44.4224,-0.0017855999999999,-0.00028601,0.0,0 STARLINK-3572,1 51879U 22022AD  22228.25002315 -.00028601  00000-0 -17856-2 0  9990,2 51879  53.2160  81.5066 0001669  65.8623  44.4224 15.08848969 26777,6917.853,95.437,540.873,538.563,0.0
51879.0,STARLINK-3572,PAYLOAD,2022-08-16 14:00:01,15.08836523,0.000164,53.2163,80.0093,73.2137,48.6025,0.0014672,0.00023137,0.0,0 STARLINK-3572,1 51879U 22022AD  22228.58334491  .00023137  00000-0  14672-2 0  9999,2 51879  53.2163  80.0093 0001640  73.2137  48.6025 15.08836523  1306,6917.891,95.438,540.891,538.621,0.0
51879.0,STARLINK-3572,PAYLOAD,2022-08-16 22:00:00,15.08839931,0.0001723,53.2161,78.5148,65.8903,67.5279,0.0004059,6.178e-05,0.0,0 STARLINK-3572,1 51879U 22022AD  22228.91667824  .00006178  00000-0  40590-3 0  9990,2 51879  53.2161  78.5148 0001723  65.8903  67.5279 15.08839931  1304,6917.880999999999,95.438,540.938,538.554,0.0
51879.0,STARLINK-3572,PAYLOAD,2022-08-17 16:00:00,15.08839552,0.0001543,53.2161,75.1467,71.7882,177.7216,-0.00085934,-0.00013938,0.0,0 STARLINK-3572,1 51879U 22022AD  22229.66667824 -.00013938  00000-0 -85934-3 0  9998,2 51879  53.2161  75.1467 0001543  71.7882 177.7216 15.08839552 26988,6917.882,95.438,540.814,538.679,0.0
51879.0,STARLINK-3572,PAYLOAD,2022-08-18 14:00:01,15.08845032,0.0001567,53.2163,71.0298,73.3934,117.9792,0.00043318,6.614e-05,0.0,0 STARLINK-3572,1 51879U 22022AD  22230.58334491  .00006614  00000-0  43318-3 0  9993,2 51879  53.2163  71.0298 0001567  73.3934 117.9792 15.08845032  1303,6917.865,95.437,540.814,538.646,0.0
51879.0,STARLINK-3572,PAYLOAD,2022-08-18 22:00:00,15.08850533,0.0001629,53.2162,69.5366,63.2351,139.7694,0.00067986,0.00010552,0.0,0 STARLINK-3572,1 51879U 22022AD  22230.91667824  .00010552  00000-0  67986-3 0  9992,2 51879  53.2162  69.5366 0001629  63.2351 139.7694 15.08850533  1305,6917.848000000001,95.437,540.84,538.586,0.0
51879.0,STARLINK-3572,PAYLOAD,2022-08-19 14:00:01,15.08822623,0.0001383,53.2165,66.5421,68.5055,157.7039,0.0005505,8.48e-05,0.0,0 STARLINK-3572,1 51879U 22022AD  22231.58334491  .00008480  00000-0  55050-3 0  9993,2 51879  53.2165  66.5421 0001383  68.5055 157.7039 15.08822623  1305,6917.934,95.439,540.755,538.842,0.0
51879.0,STARLINK-3572,PAYLOAD,2022-08-19 22:00:00,15.08805477,0.0001521999999999,53.2166,65.0474,58.4223,179.3652,0.0021484,0.00034037,0.0,0 STARLINK-3572,1 51879U 22022AD  22231.91667824  .00034037  00000-0  21484-2 0  9999,2 51879  53.2166  65.0474 0001522  58.4223 179.3652 15.08805477  1307,6917.986,95.44,540.904,538.798,0.0
51879.0,STARLINK-3572,PAYLOAD,2022-08-20 14:00:01,15.08843827,0.0001431999999999,53.217,62.0531,67.1681,193.7671,0.00012583,1.715e-05,0.0,0 STARLINK-3572,1 51879U 22022AD  22232.58334491  .00001715  00000-0  12583-3 0  9992,2 51879  53.2170  62.0531 0001432  67.1681 193.7671 15.08843827  1300,6917.869000000002,95.437,540.724,538.743,0.0
51879.0,STARLINK-3572,PAYLOAD,2022-08-20 22:00:00,15.08822881,0.0001567,53.217,60.5584,57.7303,214.80900000000003,0.0024931999999999,0.00039596,0.0,0 STARLINK-3572,1 51879U 22022AD  22232.91667824  .00039596  00000-0  24932-2 0  9996,2 51879  53.2170  60.5584 0001567  57.7303 214.8090 15.08822881 27479,6917.933000000001,95.439,540.882,538.714,0.0
51879.0,STARLINK-3572,PAYLOAD,2022-08-21 14:00:01,15.08835184,0.0001345,53.2174,57.5641,64.8568,230.8639,-0.00034889,-5.835e-05,0.0,0 STARLINK-3572,1 51879U 22022AD  22233.58334491 -.00005835  00000-0 -34889-3 0  9995,2 51879  53.2174  57.5641 0001345  64.8568 230.8639 15.08835184 27577,6917.895,95.438,540.691,538.83,0.0
51879.0,STARLINK-3572,PAYLOAD,2022-08-21 22:00:00,15.08809745,0.0001488,53.2173,56.0694,55.782,251.5299,0.0025602,0.00040659,0.0,0 STARLINK-3572,1 51879U 22022AD  22233.91667824  .00040659  00000-0  25602-2 0  9994,2 51879  53.2173  56.0694 0001488  55.7820 251.5299 15.08809745  1305,6917.973000000001,95.439,540.867,538.808,0.0
51879.0,STARLINK-3572,PAYLOAD,2022-08-22 12:00:00,15.08835114,0.0001328,53.2174,53.4489,66.9309,170.6475,0.0012335999999999,0.00019397,0.0,0 STARLINK-3572,1 51879U 22022AD  22234.50001157  .00019397  00000-0  12336-2 0  9996,2 51879  53.2174  53.4489 0001328  66.9309 170.6475 15.08835114  1304,6917.895,95.438,540.679,538.842,0.0
51879.0,STARLINK-3572,PAYLOAD,2022-08-22 22:00:00,15.08822762,0.0001455,53.2173,51.5803,56.2577,285.8231,0.0026265999999999,0.00041742,0.0,0 STARLINK-3572,1 51879U 22022AD  22234.91667824  .00041742  00000-0  26266-2 0  9996,2 51879  53.2173  51.5803 0001455  56.2577 285.8231 15.08822762  1306,6917.933000000001,95.439,540.805,538.7919999999998,0.0
51879.0,STARLINK-3572,PAYLOAD,2022-08-23 14:00:01,15.08852483,0.0001183,53.2173,48.5861,67.5324,297.7634,-0.0013331,-0.00021448,0.0,0 STARLINK-3572,1 51879U 22022AD  22235.58334491 -.00021448  00000-0 -13331-2 0  9993,2 51879  53.2173  48.5861 0001183  67.5324 297.7634 15.08852483 27882,6917.842,95.437,540.526,538.889,0.0
51879.0,STARLINK-3572,PAYLOAD,2022-08-23 22:00:01,15.08818064,0.0001283,53.2169,47.091,58.1195,318.8443,0.0026092,0.00041457,0.0,0 STARLINK-3572,1 51879U 22022AD  22235.91668981  .00041457  00000-0  26092-2 0  9992,2 51879  53.2169  47.0910 0001283  58.1195 318.8443 15.08818064  1308,6917.946999999999,95.439,540.7,538.925,0.0
51879.0,STARLINK-3572,PAYLOAD,2022-08-24 14:00:01,15.08872578,0.0001228,53.2168,44.0971,68.6677,331.4086,-0.0039983,-0.00063416,0.0,0 STARLINK-3572,1 51879U 22022AD  22236.58334491 -.00063416  00000-0 -39983-2 0  9996,2 51879  53.2168  44.0971 0001228  68.6677 331.4086 15.08872578  1305,6917.781,95.435,540.495,538.7959999999998,0.0
51879.0,STARLINK-3572,PAYLOAD,2022-08-24 16:00:00,15.08868127,0.0001281,53.2166,43.7234,65.9658,67.0156,-0.0047026,-0.00074413,0.0,0 STARLINK-3572,1 51879U 22022AD  22236.66667824 -.00074413  00000-0 -47026-2 0  9990,2 51879  53.2166  43.7234 0001281  65.9658  67.0156 15.08868127 28044,6917.794,95.436,540.5459999999998,538.773,0.0
51879.0,STARLINK-3572,PAYLOAD,2022-08-24 22:00:00,15.08803358,0.0001364,53.2164,42.6019,61.2151,350.4754,0.0021902,0.00034706,0.0,0 STARLINK-3572,1 51879U 22022AD  22236.91667824  .00034706  00000-0  21902-2 0  9992,2 51879  53.2164  42.6019 0001364  61.2151 350.4754 15.08803358  1308,6917.9919999999975,95.44,540.8009999999998,538.914,0.0
51879.0,STARLINK-3572,PAYLOAD,2022-08-25 06:00:02,15.08807525,0.0001252,53.2164,41.1037,70.0059,353.3184,0.0012131,0.00019054,0.0,0 STARLINK-3572,1 51879U 22022AD  22237.25002315  .00019054  00000-0  12131-2 0  9991,2 51879  53.2164  41.1037 0001252  70.0059 353.3184 15.08807525 28132,6917.98,95.44,540.711,538.979,0.0
51879.0,STARLINK-3572,PAYLOAD,2022-08-25 14:00:01,15.08840875,0.0001330999999999,53.2164,39.6079,70.0546,4.7664,-0.0019125,-0.00030597,0.0,0 STARLINK-3572,1 51879U 22022AD  22237.58334491 -.00030597  00000-0 -19125-2 0  9997,2 51879  53.2164  39.6079 0001331  70.0546   4.7664 15.08840875  1304,6917.878000000002,95.437,540.663,538.822,0.0
51879.0,STARLINK-3572,PAYLOAD,2022-08-25 22:00:00,15.0880675,0.0001378,53.2162,38.1126,60.5093,25.9005,0.0027007,0.00042916,0.0,0 STARLINK-3572,1 51879U 22022AD  22237.91667824  .00042916  00000-0  27007-2 0  9997,2 51879  53.2162  38.1126 0001378  60.5093  25.9005 15.08806750  1309,6917.982,95.44,540.8,538.894,0.0
51879.0,STARLINK-3572,PAYLOAD,2022-08-26 06:00:00,15.08813337,0.0001262999999999,53.2163,36.6144,68.9854,29.0041,0.0016940999999999,0.00026757,0.0,0 STARLINK-3572,1 51879U 22022AD  22238.25001157  .00026757  00000-0  16941-2 0  9996,2 51879  53.2163  36.6144 0001263  68.9854  29.0041 15.08813337 28283,6917.962,95.439,540.701,538.953,0.0
51879.0,STARLINK-3572,PAYLOAD,2022-08-26 14:00:01,15.0884984,0.0001372,53.2164,35.1186,68.3769,41.2462,-0.0018736,-0.0002998999999999,0.0,0 STARLINK-3572,1 51879U 22022AD  22238.58335648 -.00029990  00000-0 -18736-2 0  9995,2 51879  53.2164  35.1186 0001372  68.3769  41.2462 15.08849840  1309,6917.85,95.437,540.664,538.766,0.0
51879.0,STARLINK-3572,PAYLOAD,2022-08-26 22:00:00,15.08819224,0.0001419999999999,53.2164,33.6232,59.0593,62.0991,0.0025663,0.00040768,0.0,0 STARLINK-3572,1 51879U 22022AD  22238.91667824  .00040768  00000-0  25663-2 0  9997,2 51879  53.2164  33.6232 0001420  59.0593  62.0991 15.08819224  1301,6917.944,95.439,540.7909999999998,538.827,0.0
51879.0,STARLINK-3572,PAYLOAD,2022-08-27 14:00:01,15.08861558,0.0001419999999999,53.217,30.6293,66.1322,78.2076,-0.0017304,-0.00027738,0.0,0 STARLINK-3572,1 51879U 22022AD  22239.58334491 -.00027738  00000-0 -17304-2 0  9999,2 51879  53.2170  30.6293 0001420  66.1322  78.2076 15.08861558  1301,6917.814,95.436,540.6619999999998,538.697,0.0
51879.0,STARLINK-3572,PAYLOAD,2022-08-27 22:00:00,15.08847385,0.0001517,53.2169,29.1338,58.4044,97.5473,0.00058517,9.039e-05,0.0,0 STARLINK-3572,1 51879U 22022AD  22239.91667824  .00009039  00000-0  58517-3 0  9999,2 51879  53.2169  29.1338 0001517  58.4044  97.5473 15.08847385 28535,6917.858,95.437,540.7719999999998,538.673,0.0
51879.0,STARLINK-3572,PAYLOAD,2022-08-28 14:00:01,15.08851409,0.0001565999999999,53.2177,26.1402,66.0487,113.1048,-0.0013964,-0.0002245,0.0,0 STARLINK-3572,1 51879U 22022AD  22240.58334491 -.00022450  00000-0 -13964-2 0  9995,2 51879  53.2177  26.1402 0001566  66.0487 113.1048 15.08851409  1304,6917.846,95.437,540.794,538.627,0.0
